{"fetched_at":"2026-07-05T12:47:17.871Z","source":"https://celestrak.org/NORAD/elements/gp.php?GROUP=oneweb&FORMAT=JSON","constellation":"oneweb","records":[{"OBJECT_NAME":"ONEWEB-0634","OBJECT_ID":"2023-043AF","EPOCH":"2026-07-04T15:24:36.347904","CLASSIFICATION_TYPE":"U","MEAN_MOTION":13.15547829,"ECCENTRICITY":0.00023358,"INCLINATION":87.8988,"RA_OF_ASC_NODE":255.752,"ARG_OF_PERICENTER":96.1807,"MEAN_ANOMALY":263.9589,"EPHEMERIS_TYPE":0,"NORAD_CAT_ID":56075,"ELEMENT_SET_NO":999,"REV_AT_EPOCH":15869,"BSTAR":0.00044568143,"MEAN_MOTION_DOT":0.00000181,"MEAN_MOTION_DDOT":0},{"OBJECT_NAME":"ONEWEB-0635","OBJECT_ID":"2023-043AG","EPOCH":"2026-07-05T04:04:24.877632","CLASSIFICATION_TYPE":"U","MEAN_MOTION":13.15547702,"ECCENTRICITY":0.00018075,"INCLINATION":87.9,"RA_OF_ASC_NODE":255.6108,"ARG_OF_PERICENTER":95.0895,"MEAN_ANOMALY":265.0441,"EPHEMERIS_TYPE":0,"NORAD_CAT_ID":56076,"ELEMENT_SET_NO":999,"REV_AT_EPOCH":15879,"BSTAR":0.00021684656,"MEAN_MOTION_DOT":9.4e-7,"MEAN_MOTION_DDOT":0},{"OBJECT_NAME":"ONEWEB-0636","OBJECT_ID":"2023-043AH","EPOCH":"2026-07-05T03:52:59.630592","CLASSIFICATION_TYPE":"U","MEAN_MOTION":13.15547034,"ECCENTRICITY":0.00018954,"INCLINATION":87.8995,"RA_OF_ASC_NODE":255.6184,"ARG_OF_PERICENTER":94.5782,"MEAN_ANOMALY":265.5565,"EPHEMERIS_TYPE":0,"NORAD_CAT_ID":56077,"ELEMENT_SET_NO":999,"REV_AT_EPOCH":15877,"BSTAR":-0.000009619582,"MEAN_MOTION_DOT":9e-8,"MEAN_MOTION_DDOT":0},{"OBJECT_NAME":"ONEWEB-0637","OBJECT_ID":"2023-043AJ","EPOCH":"2026-07-05T03:43:52.613184","CLASSIFICATION_TYPE":"U","MEAN_MOTION":13.15547795,"ECCENTRICITY":0.00020692,"INCLINATION":87.8992,"RA_OF_ASC_NODE":255.6351,"ARG_OF_PERICENTER":90.5878,"MEAN_ANOMALY":269.549,"EPHEMERIS_TYPE":0,"NORAD_CAT_ID":56078,"ELEMENT_SET_NO":999,"REV_AT_EPOCH":15879,"BSTAR":-0.00018019137,"MEAN_MOTION_DOT":-5.5e-7,"MEAN_MOTION_DDOT":0},{"OBJECT_NAME":"ONEWEB-0647","OBJECT_ID":"2023-043AK","EPOCH":"2026-07-05T03:37:02.219232","CLASSIFICATION_TYPE":"U","MEAN_MOTION":13.15548669,"ECCENTRICITY":0.00019101,"INCLINATION":87.8993,"RA_OF_ASC_NODE":255.6483,"ARG_OF_PERICENTER":100.6466,"MEAN_ANOMALY":259.4879,"EPHEMERIS_TYPE":0,"NORAD_CAT_ID":56079,"ELEMENT_SET_NO":999,"REV_AT_EPOCH":15878,"BSTAR":-0.00014774811,"MEAN_MOTION_DOT":-4.3e-7,"MEAN_MOTION_DDOT":0},{"OBJECT_NAME":"ONEWEB-0651","OBJECT_ID":"2023-043AL","EPOCH":"2026-07-05T07:09:14.065344","CLASSIFICATION_TYPE":"U","MEAN_MOTION":13.15547933,"ECCENTRICITY":0.00019269,"INCLINATION":87.8992,"RA_OF_ASC_NODE":255.6123,"ARG_OF_PERICENTER":92.5954,"MEAN_ANOMALY":267.5397,"EPHEMERIS_TYPE":0,"NORAD_CAT_ID":56080,"ELEMENT_SET_NO":999,"REV_AT_EPOCH":16000,"BSTAR":0.00004001076,"MEAN_MOTION_DOT":2.8e-7,"MEAN_MOTION_DDOT":0},{"OBJECT_NAME":"ONEWEB-0718","OBJECT_ID":"2023-043AM","EPOCH":"2026-07-05T03:23:20.908608","CLASSIFICATION_TYPE":"U","MEAN_MOTION":13.15549451,"ECCENTRICITY":0.00025619,"INCLINATION":87.8994,"RA_OF_ASC_NODE":255.6243,"ARG_OF_PERICENTER":98.8172,"MEAN_ANOMALY":261.3249,"EPHEMERIS_TYPE":0,"NORAD_CAT_ID":56081,"ELEMENT_SET_NO":999,"REV_AT_EPOCH":15879,"BSTAR":-0.00014406916,"MEAN_MOTION_DOT":-4.1e-7,"MEAN_MOTION_DDOT":0},{"OBJECT_NAME":"ONEWEB-0561","OBJECT_ID":"2023-068A","EPOCH":"2026-07-05T05:27:59.084352","CLASSIFICATION_TYPE":"U","MEAN_MOTION":13.2077444,"ECCENTRICITY":0.00016494,"INCLINATION":87.9197,"RA_OF_ASC_NODE":270.8488,"ARG_OF_PERICENTER":100.0531,"MEAN_ANOMALY":260.0789,"EPHEMERIS_TYPE":0,"NORAD_CAT_ID":56710,"ELEMENT_SET_NO":999,"REV_AT_EPOCH":15188,"BSTAR":-0.00000309566,"MEAN_MOTION_DOT":1.2e-7,"MEAN_MOTION_DDOT":0},{"OBJECT_NAME":"ONEWEB-0668","OBJECT_ID":"2023-068B","EPOCH":"2026-07-05T01:26:42.618336","CLASSIFICATION_TYPE":"U","MEAN_MOTION":13.16594693,"ECCENTRICITY":0.00024837,"INCLINATION":87.9084,"RA_OF_ASC_NODE":225.2229,"ARG_OF_PERICENTER":86.7743,"MEAN_ANOMALY":273.3672,"EPHEMERIS_TYPE":0,"NORAD_CAT_ID":56711,"ELEMENT_SET_NO":999,"REV_AT_EPOCH":15413,"BSTAR":0.000030162191,"MEAN_MOTION_DOT":2.4e-7,"MEAN_MOTION_DDOT":0},{"OBJECT_NAME":"ONEWEB-0676","OBJECT_ID":"2023-068C","EPOCH":"2026-07-05T01:38:06.862272","CLASSIFICATION_TYPE":"U","MEAN_MOTION":13.16593883,"ECCENTRICITY":0.00017545,"INCLINATION":87.9081,"RA_OF_ASC_NODE":225.2275,"ARG_OF_PERICENTER":89.2846,"MEAN_ANOMALY":270.8486,"EPHEMERIS_TYPE":0,"NORAD_CAT_ID":56712,"ELEMENT_SET_NO":999,"REV_AT_EPOCH":15405,"BSTAR":-0.000011836887,"MEAN_MOTION_DOT":8e-8,"MEAN_MOTION_DDOT":0},{"OBJECT_NAME":"ONEWEB-0677","OBJECT_ID":"2023-068D","EPOCH":"2026-07-04T16:27:25.733664","CLASSIFICATION_TYPE":"U","MEAN_MOTION":13.20770935,"ECCENTRICITY":0.00020783,"INCLINATION":87.9194,"RA_OF_ASC_NODE":270.948,"ARG_OF_PERICENTER":88.4648,"MEAN_ANOMALY":271.6723,"EPHEMERIS_TYPE":0,"NORAD_CAT_ID":56713,"ELEMENT_SET_NO":999,"REV_AT_EPOCH":15211,"BSTAR":0.000038363636,"MEAN_MOTION_DOT":2.9e-7,"MEAN_MOTION_DDOT":0},{"OBJECT_NAME":"ONEWEB-0678","OBJECT_ID":"2023-068E","EPOCH":"2026-07-05T04:27:13.975488","CLASSIFICATION_TYPE":"U","MEAN_MOTION":13.15548018,"ECCENTRICITY":0.00019211,"INCLINATION":87.9003,"RA_OF_ASC_NODE":255.6091,"ARG_OF_PERICENTER":106.5458,"MEAN_ANOMALY":253.5884,"EPHEMERIS_TYPE":0,"NORAD_CAT_ID":56714,"ELEMENT_SET_NO":999,"REV_AT_EPOCH":15165,"BSTAR":0.00056024024,"MEAN_MOTION_DOT":0.00000224,"MEAN_MOTION_DDOT":0},{"OBJECT_NAME":"ONEWEB-0679","OBJECT_ID":"2023-068F","EPOCH":"2026-07-04T08:13:54.400800","CLASSIFICATION_TYPE":"U","MEAN_MOTION":13.16594423,"ECCENTRICITY":0.00022452,"INCLINATION":87.9085,"RA_OF_ASC_NODE":225.3627,"ARG_OF_PERICENTER":80.2077,"MEAN_ANOMALY":279.9307,"EPHEMERIS_TYPE":0,"NORAD_CAT_ID":56715,"ELEMENT_SET_NO":999,"REV_AT_EPOCH":15398,"BSTAR":0.000277425,"MEAN_MOTION_DOT":0.00000119,"MEAN_MOTION_DDOT":0},{"OBJECT_NAME":"ONEWEB-0680","OBJECT_ID":"2023-068G","EPOCH":"2026-07-04T13:57:43.767648","CLASSIFICATION_TYPE":"U","MEAN_MOTION":13.21825376,"ECCENTRICITY":0.0002456,"INCLINATION":87.9249,"RA_OF_ASC_NODE":240.5112,"ARG_OF_PERICENTER":86.4675,"MEAN_ANOMALY":273.674,"EPHEMERIS_TYPE":0,"NORAD_CAT_ID":56716,"ELEMENT_SET_NO":999,"REV_AT_EPOCH":15339,"BSTAR":0.00015252465,"MEAN_MOTION_DOT":7.6e-7,"MEAN_MOTION_DDOT":0},{"OBJECT_NAME":"ONEWEB-0681","OBJECT_ID":"2023-068H","EPOCH":"2026-07-05T04:01:53.370048","CLASSIFICATION_TYPE":"U","MEAN_MOTION":13.21824286,"ECCENTRICITY":0.00013038,"INCLINATION":87.9249,"RA_OF_ASC_NODE":240.3951,"ARG_OF_PERICENTER":79.3546,"MEAN_ANOMALY":280.7734,"EPHEMERIS_TYPE":0,"NORAD_CAT_ID":56717,"ELEMENT_SET_NO":999,"REV_AT_EPOCH":15346,"BSTAR":0.00040583732,"MEAN_MOTION_DOT":0.00000181,"MEAN_MOTION_DDOT":0},{"OBJECT_NAME":"ONEWEB-0682","OBJECT_ID":"2023-068J","EPOCH":"2026-07-04T21:43:22.388736","CLASSIFICATION_TYPE":"U","MEAN_MOTION":13.15547774,"ECCENTRICITY":0.00024049,"INCLINATION":87.9002,"RA_OF_ASC_NODE":255.6653,"ARG_OF_PERICENTER":88.3666,"MEAN_ANOMALY":271.7739,"EPHEMERIS_TYPE":0,"NORAD_CAT_ID":56718,"ELEMENT_SET_NO":999,"REV_AT_EPOCH":15178,"BSTAR":-0.00032907953,"MEAN_MOTION_DOT":-0.00000111,"MEAN_MOTION_DDOT":0}]}
